STARLINK-3561           
1 52284U 22041Z   24339.40691137  .00001159  00000+0  90918-4 0  9998
2 52284  53.2180   5.4102 0001779  90.3283 269.7913 15.08842926145016
STARLINK-3775           
1 52285U 22041AA  24339.42439891 -.00000639  00000+0 -22057-4 0  9991
2 52285  53.2187  15.3314 0001470  92.3789 267.7371 15.08835641144886
STARLINK-3802           
1 52286U 22041AB  24339.39955271 -.00000201  00000+0  55013-5 0  9996
2 52286  53.2174   5.4430 0001687  86.8934 273.2251 15.08840687145013
STARLINK-3822           
1 52287U 22041AC  24339.41703436  .00001849  00000+0  13421-3 0  9997
2 52287  53.2192  15.3645 0001377  97.8671 262.2477 15.08843309144884
STARLINK-3776           
1 52288U 22041AD  24339.39586029  .00001481  00000+0  11108-3 0  9994
2 52288  53.2184   5.4606 0000763  74.4191 285.6886 15.08842965145015
STARLINK-3751           
1 52289U 22041AE  24339.47682662 -.00003173  00000+0 -18143-3 0  9992
2 52289  53.2190   5.0969 0000383 101.9523 258.1513 15.08833664145023
STARLINK-3772           
1 52290U 22041AF  24339.45202362  .00002067  00000+0  14788-3 0  9997
2 52290  53.2178   5.2059 0001580 102.4923 257.6246 15.08844372145028
STARLINK-3773           
1 52291U 22041AG  24339.32768388  .00099857  00000+0  34185-2 0  9994
2 52291  53.2028 351.6900 0003419 284.5562  75.5060 15.29430451145203
STARLINK-3753           
1 52292U 22041AH  24339.51362108  .00002230  00000+0  15810-3 0  9990
2 52292  53.2192   4.9284 0001622  86.9558 273.1620 15.08847424145030
STARLINK-3771           
1 52293U 22041AJ  24339.39314409  .00003208  00000+0  21952-3 0  9998
2 52293  53.2179   5.4802 0001779  90.2490 269.8706 15.08847829145018
STARLINK-3777           
1 52294U 22041AK  24339.44371390 -.00000186  00000+0  64164-5 0  9994
2 52294  53.2181   5.2443 0001518  93.9677 266.1488 15.08837091145027
STARLINK-3765           
1 52295U 22041AL  24339.38852224 -.00000672  00000+0 -24150-4 0  9999
2 52295  53.2202   5.4931 0001725  94.7642 265.3547 15.08829437145018
STARLINK-3766           
1 52296U 22041AM  24339.36642648 -.00000423  00000+0 -84963-5 0  9998
2 52296  53.2177   5.5909 0001695  82.9613 277.1572 15.08842726145014
STARLINK-3758           
1 52297U 22041AN  24339.38483363 -.00001201  00000+0 -57359-4 0  9991
2 52297  53.2174   5.5097 0001490  97.1982 262.9179 15.08833018145019
STARLINK-3760           
1 52298U 22041AP  24339.39214025  .00001649  00000+0  12167-3 0  9991
2 52298  53.2195   5.0870 0001726  76.3714 283.7470 15.08843440145027
STARLINK-3759           
1 52299U 22041AQ  24339.39456163 -.00000055  00000+0  11689-4 0  9993
2 52299  53.2165   4.3238 0001239  90.9961 269.1179 15.22684277145032
STARLINK-3769           
1 52300U 22041AR  24339.48787269 -.00000247  00000+0  25424-5 0  9996
2 52300  53.2191   5.0430 0001414 103.2749 256.8400 15.08839182146259
STARLINK-3768           
1 52301U 22041AS  24339.37380712  .00000343  00000+0  39648-4 0  9995
2 52301  53.2178   5.5543 0001564  98.6041 261.5128 15.08825592145016
STARLINK-3564           
1 52302U 22041AT  24339.41150917  .00001569  00000+0  11664-3 0  9991
2 52302  53.2176 355.3867 0001331  92.4541 267.6603 15.08842243145151
STARLINK-3742           
1 52303U 22041AU  24339.35907699  .00003798  00000+0  25661-3 0  9990
2 52303  53.2182   5.6238 0001477  96.3815 263.7345 15.08834452146237
STARLINK-3744           
1 52304U 22041AV  24339.40783290  .00000319  00000+0  38124-4 0  9991
2 52304  53.2172 355.4044 0000737  85.4548 274.6528 15.08838578145155
STARLINK-3724           
1 52305U 22041AW  24339.49524469  .00002256  00000+0  15979-3 0  9996
2 52305  53.2165   5.1168 0001349  92.5986 267.5161 15.08842236145036
STARLINK-3747           
1 52306U 22041AX  24339.47039591  .00000819  00000+0  69537-4 0  9995
2 52306  53.2189 355.1229 0001516  97.2584 262.8581 15.08834888146388
STARLINK-3755           
1 52307U 22041AY  24339.41795845 -.00000136  00000+0  95552-5 0  9991
2 52307  53.2175   5.3579 0001710  97.8785 262.2401 15.08833495145029
STARLINK-3756           
1 52309U 22041BA  24339.40046453  .00005787  00000+0  38122-3 0  9990
2 52309  53.2169 355.4376 0001473  91.1809 268.9352 15.08853508146372
STARLINK-3688           
1 52310U 22041BB  24339.46301364  .00003953  00000+0  26615-3 0  9990
2 52310  53.2181 355.2227 0001918 102.8060 257.3146 15.08860360146382
STARLINK-3750           
1 52311U 22041BC  24339.32686834  .00003638  00000+0  24650-3 0  9991
2 52311  53.2167 355.7669 0000908 104.8710 255.2383 15.08841506146363
STARLINK-3752           
1 52312U 22041BD  24339.41887176  .00000176  00000+0  29142-4 0  9990
2 52312  53.2196 355.3081 0001635  92.1221 267.9958 15.08831931146385
STARLINK-3749           
1 52313U 22041BE  24339.35630680 -.00000810  00000+0 -32785-4 0  9994
2 52313  53.2180 355.6364 0001357  91.7727 268.3421 15.08844740146374
SUPERVIEW NEO-1 01      
1 52320U 22043A   24339.57556409  .00021051  00000+0  89780-3 0  9998
2 52320  97.3950  57.8438 0000826 147.0610 213.0678 15.22947845144785
