OBJECT_NAME,OBJECT_ID,EPOCH,MEAN_MOTION,ECCENTRICITY,INCLINATION,RA_OF_ASC_NODE,ARG_OF_PERICENTER,MEAN_ANOMALY,EPHEMERIS_TYPE,CLASSIFICATION_TYPE,NORAD_CAT_ID,ELEMENT_SET_NO,REV_AT_EPOCH,BSTAR,MEAN_MOTION_DOT,MEAN_MOTION_DDOT
STARLINK-3561,2022-041Z,2024-12-04T09:45:57.142368,15.08842926,.0001779,53.2180,5.4102,90.3283,269.7913,0,U,52284,999,14501,.90918E-4,.1159E-4,0
STARLINK-3775,2022-041AA,2024-12-04T10:11:08.065824,15.08835641,.000147,53.2187,15.3314,92.3789,267.7371,0,U,52285,999,14488,-.22057E-4,-.639E-5,0
STARLINK-3802,2022-041AB,2024-12-04T09:35:21.354144,15.08840687,.0001687,53.2174,5.4430,86.8934,273.2251,0,U,52286,999,14501,.55013E-5,-.201E-5,0
STARLINK-3822,2022-041AC,2024-12-04T10:00:31.768704,15.08843309,.0001377,53.2192,15.3645,97.8671,262.2477,0,U,52287,999,14488,.13421E-3,.1849E-4,0
STARLINK-3776,2022-041AD,2024-12-04T09:30:02.329056,15.08842965,.0000763,53.2184,5.4606,74.4191,285.6886,0,U,52288,999,14501,.11108E-3,.1481E-4,0
STARLINK-3751,2022-041AE,2024-12-04T11:26:37.819968,15.08833664,.0000383,53.2190,5.0969,101.9523,258.1513,0,U,52289,999,14502,-.18143E-3,-.3173E-4,0
STARLINK-3772,2022-041AF,2024-12-04T10:50:54.840768,15.08844372,.000158,53.2178,5.2059,102.4923,257.6246,0,U,52290,999,14502,.14788E-3,.2067E-4,0
STARLINK-3773,2022-041AG,2024-12-04T07:51:51.887232,15.29430451,.0003419,53.2028,351.6900,284.5562,75.5060,0,U,52291,999,14520,.34185E-2,.99857E-3,0
STARLINK-3753,2022-041AH,2024-12-04T12:19:36.861312,15.08847424,.0001622,53.2192,4.9284,86.9558,273.1620,0,U,52292,999,14503,.1581E-3,.223E-4,0
STARLINK-3771,2022-041AJ,2024-12-04T09:26:07.649376,15.08847829,.0001779,53.2179,5.4802,90.2490,269.8706,0,U,52293,999,14501,.21952E-3,.3208E-4,0
STARLINK-3777,2022-041AK,2024-12-04T10:38:56.880960,15.08837091,.0001518,53.2181,5.2443,93.9677,266.1488,0,U,52294,999,14502,.64164E-5,-.186E-5,0
STARLINK-3765,2022-041AL,2024-12-04T09:19:28.321536,15.08829437,.0001725,53.2202,5.4931,94.7642,265.3547,0,U,52295,999,14501,-.2415E-4,-.672E-5,0
STARLINK-3766,2022-041AM,2024-12-04T08:47:39.247872,15.08842726,.0001695,53.2177,5.5909,82.9613,277.1572,0,U,52296,999,14501,-.84963E-5,-.423E-5,0
STARLINK-3758,2022-041AN,2024-12-04T09:14:09.625632,15.08833018,.000149,53.2174,5.5097,97.1982,262.9179,0,U,52297,999,14501,-.57359E-4,-.1201E-4,0
STARLINK-3760,2022-041AP,2024-12-04T09:24:40.917600,15.08843440,.0001726,53.2195,5.0870,76.3714,283.7470,0,U,52298,999,14502,.12167E-3,.1649E-4,0
STARLINK-3759,2022-041AQ,2024-12-04T09:28:10.124832,15.22684277,.0001239,53.2165,4.3238,90.9961,269.1179,0,U,52299,999,14503,.11689E-4,-.55E-6,0
STARLINK-3769,2022-041AR,2024-12-04T11:42:32.200416,15.08839182,.0001414,53.2191,5.0430,103.2749,256.8400,0,U,52300,999,14625,.25424E-5,-.247E-5,0
STARLINK-3768,2022-041AS,2024-12-04T08:58:16.935168,15.08825592,.0001564,53.2178,5.5543,98.6041,261.5128,0,U,52301,999,14501,.39648E-4,.343E-5,0
STARLINK-3564,2022-041AT,2024-12-04T09:52:34.392288,15.08842243,.0001331,53.2176,355.3867,92.4541,267.6603,0,U,52302,999,14515,.11664E-3,.1569E-4,0
STARLINK-3742,2022-041AU,2024-12-04T08:37:04.251936,15.08834452,.0001477,53.2182,5.6238,96.3815,263.7345,0,U,52303,999,14623,.25661E-3,.3798E-4,0
STARLINK-3744,2022-041AV,2024-12-04T09:47:16.762560,15.08838578,.0000737,53.2172,355.4044,85.4548,274.6528,0,U,52304,999,14515,.38124E-4,.319E-5,0
STARLINK-3724,2022-041AW,2024-12-04T11:53:09.141216,15.08842236,.0001349,53.2165,5.1168,92.5986,267.5161,0,U,52305,999,14503,.15979E-3,.2256E-4,0
STARLINK-3747,2022-041AX,2024-12-04T11:17:22.206624,15.08834888,.0001516,53.2189,355.1229,97.2584,262.8581,0,U,52306,999,14638,.69537E-4,.819E-5,0
STARLINK-3755,2022-041AY,2024-12-04T10:01:51.610080,15.08833495,.000171,53.2175,5.3579,97.8785,262.2401,0,U,52307,999,14502,.95552E-5,-.136E-5,0
STARLINK-3756,2022-041BA,2024-12-04T09:36:40.135392,15.08853508,.0001473,53.2169,355.4376,91.1809,268.9352,0,U,52309,999,14637,.38122E-3,.5787E-4,0
STARLINK-3688,2022-041BB,2024-12-04T11:06:44.378496,15.08860360,.0001918,53.2181,355.2227,102.8060,257.3146,0,U,52310,999,14638,.26615E-3,.3953E-4,0
STARLINK-3750,2022-041BC,2024-12-04T07:50:41.424576,15.08841506,.0000908,53.2167,355.7669,104.8710,255.2383,0,U,52311,999,14636,.2465E-3,.3638E-4,0
STARLINK-3752,2022-041BD,2024-12-04T10:03:10.520064,15.08831931,.0001635,53.2196,355.3081,92.1221,267.9958,0,U,52312,999,14638,.29142E-4,.176E-5,0
STARLINK-3749,2022-041BE,2024-12-04T08:33:04.907520,15.08844740,.0001357,53.2180,355.6364,91.7727,268.3421,0,U,52313,999,14637,-.32785E-4,-.81E-5,0
SUPERVIEW NEO-1 01,2022-043A,2024-12-04T13:48:48.737376,15.22947845,.0000826,97.3950,57.8438,147.0610,213.0678,0,U,52320,999,14478,.8978E-3,.21051E-3,0
